ATLAS CENTAUR R/B       
1 06155U 72065B   25362.06761737  .00001568  00000+0  21787-3 0  9999
2 06155  35.0025   5.4088 0033351 128.4998 231.8700 14.77450221830662
SL-8 R/B                
1 08459U 75112B   25362.48197545  .00000367  00000+0  12960-3 0  9999
2 08459  74.0599 149.9020 0016679 259.6793 100.2481 14.38156140621634
SL-3 R/B                
1 10114U 77057B   25362.44864074  .00015722  00000+0  35415-3 0  9995
2 10114  97.5691 166.3930 0007526 171.5343 188.6032 15.43338700657334
SEASAT 1                
1 10967U 78064A   25362.45453694  .00000562  00000+0  19583-3 0  9997
2 10967 108.0142 336.0053 0001263 257.3848 102.7157 14.46079265496219
SL-14 R/B               
1 11267U 79011B   25362.48374491  .00000929  00000+0  89552-4 0  9995
2 11267  82.5238 164.1120 0014771 298.1040  61.8686 14.91790854518160
SL-8 R/B                
1 11574U 79089B   25362.37344877  .00000320  00000+0  10494-3 0  9997
2 11574  74.0671 223.0445 0014811  51.0344 309.2129 14.42293674425826
SL-14 R/B               
1 11672U 80005B   25362.45006166  .00000790  00000+0  77537-4 0  9994
2 11672  82.5138  14.7979 0016904  45.3636 314.8958 14.90811082465872
SL-8 R/B                
1 12139U 81003B   25362.47152647  .00025644  00000+0  67823-3 0  9991
2 12139  82.9357 355.7276 0277022  66.2681 296.7343 15.07552199303932
SL-3 R/B                
1 12465U 81046B   25362.48589218  .00013951  00000+0  34746-3 0  9995
2 12465  81.2325  15.0955 0018016 266.4398  93.4783 15.39947517427468
SL-3 R/B                
1 12904U 81103B   25362.45588671  .00008113  00000+0  37009-3 0  9995
2 12904  81.1593 296.9462 0013097 157.8206 202.3594 15.20424434962407
SL-3 R/B                
1 13068U 82013B   25362.23331069  .00006061  00000+0  26835-3 0  9996
2 13068  81.1739 244.4733 0024043  61.4898 298.8750 15.21224129393480
SL-3 R/B                
1 13154U 82039B   25362.41503220  .00004017  00000+0  24602-3 0  9999
2 13154  81.1703 298.0623 0029446 198.9745 161.0386 15.09619499370888
